NORAD_CAT_ID,OBJECT_NAME,OBJECT_TYPE,EPOCH,MEAN_MOTION,ECCENTRICITY,INCLINATION,RA_OF_ASC_NODE,ARG_OF_PERICENTER,MEAN_ANOMALY,BSTAR,MEAN_MOTION_DOT,MEAN_MOTION_DDOT,TLE_LINE0,TLE_LINE1,TLE_LINE2,SEMIMAJOR_AXIS,PERIOD,APOGEE,PERIGEE,DECAYED
53987.0,STARLINK-5112,PAYLOAD,2022-11-04 22:00:01,15.73166368,0.00032,53.217,303.3703,10.2699,232.8929,-0.00021552,-0.00030725,0.0,0 STARLINK-5112,1 53987U 22125Z   22308.91668981 -.00030725  00000-0 -21552-3 0  9994,2 53987  53.2170 303.3703 0003200  10.2699 232.8929 15.73166368  1308,6727.991,91.535,352.009,347.70300000000015,0.0
53987.0,STARLINK-5112,PAYLOAD,2022-11-05 12:00:00,15.7306155,0.000354,53.2169,300.4861,9.6453,298.9503,0.00051309,0.00071594,0.0,0 STARLINK-5112,1 53987U 22125Z   22309.50001157  .00071594  00000-0  51309-3 0  9996,2 53987  53.2169 300.4861 0003540   9.6453 298.9503 15.73061550  5195,6728.29,91.541,352.537,347.773,0.0
53987.0,STARLINK-5112,PAYLOAD,2022-11-05 14:00:01,15.73082269,0.0003478999999999,53.2168,300.0731,9.9663,50.8857,0.00034113,0.00047294,0.0,0 STARLINK-5112,1 53987U 22125Z   22309.58335648  .00047294  00000-0  34113-3 0  9993,2 53987  53.2168 300.0731 0003479   9.9663  50.8857 15.73082269  1309,6728.231,91.54,352.43699999999984,347.755,0.0
53987.0,STARLINK-5112,PAYLOAD,2022-11-05 22:00:01,15.73080755,0.0003239,53.2168,298.4224,12.4389,137.2309,0.0016434,0.00235421,0.0,0 STARLINK-5112,1 53987U 22125Z   22309.91668981  .00235421  00000-0  16434-2 0  9995,2 53987  53.2168 298.4224 0003239  12.4389 137.2309 15.73080755  1304,6728.235,91.54,352.279,347.921,0.0
53987.0,STARLINK-5112,PAYLOAD,2022-11-06 06:00:00,15.73297423,0.0003333,53.2165,296.775,9.9827,228.4842,0.00056884,0.00080331,0.0,0 STARLINK-5112,1 53987U 22125Z   22310.25001157  .00080331  00000-0  56884-3 0  9992,2 53987  53.2165 296.7750 0003333   9.9827 228.4842 15.73297423  5311,6727.6169999999975,91.528,351.725,347.24,0.0
53987.0,STARLINK-5112,PAYLOAD,2022-11-06 12:00:00,15.73392866,0.0003406,53.2162,295.5377,6.2298,209.0349,-0.0015541,-0.00215119,0.0,0 STARLINK-5112,1 53987U 22125Z   22310.50001157 -.00215119  00000-0 -15541-2 0  9990,2 53987  53.2162 295.5377 0003406   6.2298 209.0349 15.73392866  5351,6727.345,91.522,351.50199999999984,346.9190000000001,0.0
53987.0,STARLINK-5112,PAYLOAD,2022-11-06 14:00:01,15.73351578,0.0003357,53.2164,295.1246,6.1967,321.3544,-0.001481,-0.00204908,0.0,0 STARLINK-5112,1 53987U 22125Z   22310.58334491 -.00204908  00000-0 -14810-2 0  9990,2 53987  53.2164 295.1246 0003357   6.1967 321.3544 15.73351578  1302,6727.4630000000025,91.524,351.586,347.07,0.0
53987.0,STARLINK-5112,PAYLOAD,2022-11-07 06:00:00,15.731369400000002,0.0003407,53.2167,291.8257,11.987,133.5096,0.00029146,0.00040379,0.0,0 STARLINK-5112,1 53987U 22125Z   22311.25001157  .00040379  00000-0  29146-3 0  9992,2 53987  53.2167 291.8257 0003407  11.9870 133.5096 15.73136940  5474,6728.075,91.537,352.232,347.648,0.0
53987.0,STARLINK-5112,PAYLOAD,2022-11-07 22:00:00,15.73221454,0.0003088,53.217,288.5177,2.9891,320.2569,-0.00029227,-0.00041488,0.0,0 STARLINK-5112,1 53987U 22125Z   22311.91667824 -.00041488  00000-0 -29227-3 0  9998,2 53987  53.2170 288.5177 0003088   2.9891 320.2569 15.73221454  1303,6727.834,91.532,351.777,347.621,0.0
53987.0,STARLINK-5112,PAYLOAD,2022-11-08 06:00:00,15.73064907,0.0002742,53.2174,286.8649,331.7237,80.5732,-0.0045221,-0.00589529,0.0,0 STARLINK-5112,1 53987U 22125Z   22312.25001157 -.00589529  00000-0 -45221-2 0  9991,2 53987  53.2174 286.8649 0002742 331.7237  80.5732 15.73064907  5631,6728.28,91.541,351.99,348.3,0.0
53987.0,STARLINK-5112,PAYLOAD,2022-11-08 10:00:01,15.73063034,0.0003208999999999,53.2172,286.0381,302.7789,333.848,-0.0084798,-0.01064486,0.0,0 STARLINK-5112,1 53987U 22125Z   22312.41668981 -.01064486  00000-0 -84798-2 0  9996,2 53987  53.2172 286.0381 0003209 302.7789 333.8480 15.73063034  5659,6728.286,91.541,352.31,347.992,0.0
53987.0,STARLINK-5112,PAYLOAD,2022-11-08 14:00:01,15.72656412,0.0003913,53.2169,285.2128,293.4348,207.406,-0.0085632,-0.01057457,0.0,0 STARLINK-5112,1 53987U 22125Z   22312.58334491 -.01057457  00000-0 -85632-2 0  9998,2 53987  53.2169 285.2128 0003913 293.4348 207.4060 15.72656412  1309,6729.445,91.565,353.944,348.677,0.0
53987.0,STARLINK-5112,PAYLOAD,2022-11-08 22:00:00,15.71934857,0.000649,53.2169,283.5651,271.5318,317.0961,-0.010008,-0.01184347,0.0,0 STARLINK-5112,1 53987U 22125Z   22312.91667824 -.01184347  00000-0 -10008-1 0  9997,2 53987  53.2169 283.5651 0006490 271.5318 317.0961 15.71934857  1307,6731.505,91.607,357.73800000000006,349.001,0.0
53987.0,STARLINK-5112,PAYLOAD,2022-11-09 04:00:00,15.71223413,0.0006757,53.2173,282.3325,270.9488,292.962,-0.0090876,-0.0105746,0.0,0 STARLINK-5112,1 53987U 22125Z   22313.16667824 -.01057460  00000-0 -90876-2 0  9992,2 53987  53.2173 282.3325 0006757 270.9488 292.9620 15.71223413  5771,6733.536,91.648,359.951,350.852,0.0
53987.0,STARLINK-5112,PAYLOAD,2022-11-09 12:00:00,15.70438107,0.000638,53.2169,280.6884,269.3146,20.6952,-0.0096648,-0.01084489,0.0,0 STARLINK-5112,1 53987U 22125Z   22313.50001157 -.01084489  00000-0 -96648-2 0  9995,2 53987  53.2169 280.6884 0006380 269.3146  20.6952 15.70438107  5829,6735.781,91.694,361.943,353.349,0.0
53987.0,STARLINK-5112,PAYLOAD,2022-11-09 14:00:01,15.70269708,0.000587,53.2172,280.2767,271.1024,130.2706,-0.010254,-0.01135887,0.0,0 STARLINK-5112,1 53987U 22125Z   22313.58334491 -.01135887  00000-0 -10254-1 0  9990,2 53987  53.2172 280.2767 0005870 271.1024 130.2706 15.70269708  1301,6736.263000000001,91.704,362.082,354.173,0.0
53987.0,STARLINK-5112,PAYLOAD,2022-11-09 22:00:01,15.69481147,0.0001439,53.2173,278.634,342.3463,143.9773,-0.010972,-0.01188734,0.0,0 STARLINK-5112,1 53987U 22125Z   22313.91668981 -.01188734  00000-0 -10972-1 0  9997,2 53987  53.2173 278.6340 0001439 342.3463 143.9773 15.69481147  5899,6738.519,91.75,361.353,359.414,0.0
53987.0,STARLINK-5112,PAYLOAD,2022-11-10 14:00:01,15.67821272,0.0001189,53.2171,275.3571,59.5995,233.5328,-0.011264,-0.0114371,0.0,0 STARLINK-5112,1 53987U 22125Z   22314.58334491 -.01143710  00000-0 -11264-1 0  9997,2 53987  53.2171 275.3571 0001189  59.5995 233.5328 15.67821272  1305,6743.274,91.847,365.941,364.337,0.0
53987.0,STARLINK-5112,PAYLOAD,2022-11-10 20:00:01,15.67248682,0.0001276,53.2167,274.1296,64.4379,200.2341,-0.011999,-0.01185588,0.0,0 STARLINK-5112,1 53987U 22125Z   22314.83334491 -.01185588  00000-0 -11999-1 0  9999,2 53987  53.2167 274.1296 0001276  64.4379 200.2341 15.67248682  6038,6744.916,91.881,367.642,365.921,0.0
53987.0,STARLINK-5112,PAYLOAD,2022-11-10 22:00:00,15.67032187,0.000124,53.2169,273.7211,54.2285,320.8538,-0.011986,-0.01174969,0.0,0 STARLINK-5112,1 53987U 22125Z   22314.91667824 -.01174969  00000-0 -11986-1 0  9994,2 53987  53.2169 273.7211 0001240  54.2285 320.8538 15.67032187  1309,6745.538000000001,91.893,368.239,366.566,0.0
53987.0,STARLINK-5112,PAYLOAD,2022-11-11 14:00:01,15.65377227,0.0001261,53.2174,270.4562,68.3313,107.7564,-0.012379,-0.01138423,0.0,0 STARLINK-5112,1 53987U 22125Z   22315.58334491 -.01138423  00000-0 -12379-1 0  9991,2 53987  53.2174 270.4562 0001261  68.3313 107.7564 15.65377227  1305,6750.291,91.991,373.007,371.305,0.0
53987.0,STARLINK-5112,PAYLOAD,2022-11-11 22:00:00,15.64560548,0.0001182,53.2173,268.8268,74.4481,180.6685,-0.012707,-0.01131561,0.0,0 STARLINK-5112,1 53987U 22125Z   22315.91667824 -.01131561  00000-0 -12707-1 0  9998,2 53987  53.2173 268.8268 0001182  74.4481 180.6685 15.64560548  1307,6752.64,92.039,375.30300000000005,373.707,0.0
53987.0,STARLINK-5112,PAYLOAD,2022-11-12 06:00:00,15.63761294,0.000103,53.2176,267.2015,79.9401,253.2201,-0.013393,-0.0115293,0.0,0 STARLINK-5112,1 53987U 22125Z   22316.25001157 -.01152930  00000-0 -13393-1 0  9992,2 53987  53.2176 267.2015 0001030  79.9401 253.2201 15.63761294  6257,6754.941,92.086,377.501,376.11,0.0
53987.0,STARLINK-5112,PAYLOAD,2022-11-12 14:00:01,15.6294414,0.0001042,53.2173,265.5743,62.328,347.9082,-0.013769,-0.01148057,0.0,0 STARLINK-5112,1 53987U 22125Z   22316.58334491 -.01148057  00000-0 -13769-1 0  9990,2 53987  53.2173 265.5743 0001042  62.3280 347.9082 15.62944140  1308,6757.295,92.134,379.864,378.456,0.0
53987.0,STARLINK-5112,PAYLOAD,2022-11-12 22:00:00,15.62126149,0.0001256,53.2172,263.9502,65.7545,60.5791,-0.014126,-0.01141304,0.0,0 STARLINK-5112,1 53987U 22125Z   22316.91667824 -.01141304  00000-0 -14126-1 0  9992,2 53987  53.2172 263.9502 0001256  65.7545  60.5791 15.62126149  1306,6759.654,92.182,382.36800000000005,380.67,0.0
53987.0,STARLINK-5112,PAYLOAD,2022-11-13 04:00:01,15.61534315,0.0001116,53.2172,262.7359,76.2178,16.5988,-0.014779,-0.01164228,0.0,0 STARLINK-5112,1 53987U 22125Z   22317.16668981 -.01164228  00000-0 -14779-1 0  9999,2 53987  53.2172 262.7359 0001116  76.2178  16.5988 15.61534315  6409,6761.361,92.217,383.981,382.472,0.0
53987.0,STARLINK-5112,PAYLOAD,2022-11-13 14:00:01,15.60513346,0.0001075,53.2173,260.7099,83.9634,191.6199,-0.0153389999999999,-0.01161598,0.0,0 STARLINK-5112,1 53987U 22125Z   22317.58334491 -.01161598  00000-0 -15339-1 0  9991,2 53987  53.2173 260.7099 0001075  83.9634 191.6199 15.60513346  1308,6764.31,92.277,386.902,385.448,0.0
53987.0,STARLINK-5112,PAYLOAD,2022-11-13 22:00:00,15.59686396,0.000101,53.2169,259.0913,83.042,265.7093,-0.015543,-0.01142124,0.0,0 STARLINK-5112,1 53987U 22125Z   22317.91667824 -.01142124  00000-0 -15543-1 0  9998,2 53987  53.2169 259.0913 0001010  83.0420 265.7093 15.59686396  1302,6766.701,92.326,389.249,387.883,0.0
53987.0,STARLINK-5112,PAYLOAD,2022-11-14 14:00:01,15.58051141,0.0001196,53.2176,255.8613,73.9858,58.1599,-0.016371,-0.01131334,0.0,0 STARLINK-5112,1 53987U 22125Z   22318.58334491 -.01131334  00000-0 -16371-1 0  9994,2 53987  53.2176 255.8613 0001196  73.9858  58.1599 15.58051141  6627,6771.435,92.423,394.11,392.49,0.0
